{"fetched_at":"2026-07-14T17:40:23.520Z","source":"https://celestrak.org/NORAD/elements/gp.php?GROUP=oneweb&FORMAT=JSON","constellation":"oneweb","records":[{"OBJECT_NAME":"ONEWEB-0340","OBJECT_ID":"2021-083W","EPOCH":"2026-07-13T20:12:33.012864","CLASSIFICATION_TYPE":"U","MEAN_MOTION":13.18687153,"ECCENTRICITY":0.0001861,"INCLINATION":87.9199,"RA_OF_ASC_NODE":330.1553,"ARG_OF_PERICENTER":92.9027,"MEAN_ANOMALY":267.2318,"EPHEMERIS_TYPE":0,"NORAD_CAT_ID":49206,"ELEMENT_SET_NO":999,"REV_AT_EPOCH":23348,"BSTAR":-0.00017659,"MEAN_MOTION_DOT":-5.7e-7,"MEAN_MOTION_DDOT":0},{"OBJECT_NAME":"ONEWEB-0341","OBJECT_ID":"2021-083X","EPOCH":"2026-07-13T20:22:15.270240","CLASSIFICATION_TYPE":"U","MEAN_MOTION":13.18687866,"ECCENTRICITY":0.000234,"INCLINATION":87.919,"RA_OF_ASC_NODE":330.1555,"ARG_OF_PERICENTER":91.4121,"MEAN_ANOMALY":268.7279,"EPHEMERIS_TYPE":0,"NORAD_CAT_ID":49207,"ELEMENT_SET_NO":999,"REV_AT_EPOCH":23350,"BSTAR":-0.00012667,"MEAN_MOTION_DOT":-3.7e-7,"MEAN_MOTION_DDOT":0},{"OBJECT_NAME":"ONEWEB-0342","OBJECT_ID":"2021-083Y","EPOCH":"2026-07-14T04:03:02.126304","CLASSIFICATION_TYPE":"U","MEAN_MOTION":13.20768535,"ECCENTRICITY":0.00022,"INCLINATION":87.9181,"RA_OF_ASC_NODE":269.062,"ARG_OF_PERICENTER":102.3271,"MEAN_ANOMALY":257.8108,"EPHEMERIS_TYPE":0,"NORAD_CAT_ID":49208,"ELEMENT_SET_NO":999,"REV_AT_EPOCH":24034,"BSTAR":0.002077,"MEAN_MOTION_DOT":0.00000858,"MEAN_MOTION_DDOT":0},{"OBJECT_NAME":"ONEWEB-0343","OBJECT_ID":"2021-083Z","EPOCH":"2026-07-13T22:23:39.801120","CLASSIFICATION_TYPE":"U","MEAN_MOTION":13.18687855,"ECCENTRICITY":0.0002213,"INCLINATION":87.919,"RA_OF_ASC_NODE":330.1374,"ARG_OF_PERICENTER":107.0014,"MEAN_ANOMALY":253.1361,"EPHEMERIS_TYPE":0,"NORAD_CAT_ID":49209,"ELEMENT_SET_NO":999,"REV_AT_EPOCH":23356,"BSTAR":0.00003016,"MEAN_MOTION_DOT":2.5e-7,"MEAN_MOTION_DDOT":0},{"OBJECT_NAME":"ONEWEB-0344","OBJECT_ID":"2021-083AA","EPOCH":"2026-07-13T20:35:46.567968","CLASSIFICATION_TYPE":"U","MEAN_MOTION":13.13469241,"ECCENTRICITY":0.0002257,"INCLINATION":87.8977,"RA_OF_ASC_NODE":314.9303,"ARG_OF_PERICENTER":93.0886,"MEAN_ANOMALY":267.0501,"EPHEMERIS_TYPE":0,"NORAD_CAT_ID":49210,"ELEMENT_SET_NO":999,"REV_AT_EPOCH":23439,"BSTAR":0.00079219,"MEAN_MOTION_DOT":0.00000302,"MEAN_MOTION_DDOT":0},{"OBJECT_NAME":"ONEWEB-0345","OBJECT_ID":"2021-083AB","EPOCH":"2026-07-13T20:23:36.137184","CLASSIFICATION_TYPE":"U","MEAN_MOTION":13.1347084,"ECCENTRICITY":0.000224,"INCLINATION":87.8984,"RA_OF_ASC_NODE":314.9172,"ARG_OF_PERICENTER":93.8486,"MEAN_ANOMALY":266.2899,"EPHEMERIS_TYPE":0,"NORAD_CAT_ID":49211,"ELEMENT_SET_NO":999,"REV_AT_EPOCH":23440,"BSTAR":0.00015468,"MEAN_MOTION_DOT":6.9e-7,"MEAN_MOTION_DDOT":0},{"OBJECT_NAME":"ONEWEB-0346","OBJECT_ID":"2021-083AC","EPOCH":"2026-07-13T20:29:32.608032","CLASSIFICATION_TYPE":"U","MEAN_MOTION":13.18687601,"ECCENTRICITY":0.0001573,"INCLINATION":87.9185,"RA_OF_ASC_NODE":330.1527,"ARG_OF_PERICENTER":78.5318,"MEAN_ANOMALY":281.5991,"EPHEMERIS_TYPE":0,"NORAD_CAT_ID":49212,"ELEMENT_SET_NO":999,"REV_AT_EPOCH":23349,"BSTAR":-0.0000031646,"MEAN_MOTION_DOT":1.2e-7,"MEAN_MOTION_DDOT":0},{"OBJECT_NAME":"ONEWEB-0348","OBJECT_ID":"2021-083AD","EPOCH":"2026-07-14T03:48:29.644416","CLASSIFICATION_TYPE":"U","MEAN_MOTION":13.20772204,"ECCENTRICITY":0.000213,"INCLINATION":87.9186,"RA_OF_ASC_NODE":269.0671,"ARG_OF_PERICENTER":83.817,"MEAN_ANOMALY":276.3206,"EPHEMERIS_TYPE":0,"NORAD_CAT_ID":49213,"ELEMENT_SET_NO":999,"REV_AT_EPOCH":24037,"BSTAR":0.00015822,"MEAN_MOTION_DOT":7.7e-7,"MEAN_MOTION_DDOT":0},{"OBJECT_NAME":"ONEWEB-0350","OBJECT_ID":"2021-083AE","EPOCH":"2026-07-13T19:00:54.750240","CLASSIFICATION_TYPE":"U","MEAN_MOTION":13.13471469,"ECCENTRICITY":0.0001667,"INCLINATION":87.8987,"RA_OF_ASC_NODE":314.9332,"ARG_OF_PERICENTER":137.3669,"MEAN_ANOMALY":222.7589,"EPHEMERIS_TYPE":0,"NORAD_CAT_ID":49214,"ELEMENT_SET_NO":999,"REV_AT_EPOCH":23442,"BSTAR":0.00067688,"MEAN_MOTION_DOT":0.0000026,"MEAN_MOTION_DDOT":0},{"OBJECT_NAME":"ONEWEB-0351","OBJECT_ID":"2021-083AF","EPOCH":"2026-07-14T03:38:35.442240","CLASSIFICATION_TYPE":"U","MEAN_MOTION":13.20763746,"ECCENTRICITY":0.0003392,"INCLINATION":87.9209,"RA_OF_ASC_NODE":269.0662,"ARG_OF_PERICENTER":117.1793,"MEAN_ANOMALY":242.9687,"EPHEMERIS_TYPE":0,"NORAD_CAT_ID":49215,"ELEMENT_SET_NO":999,"REV_AT_EPOCH":24033,"BSTAR":0.0034496,"MEAN_MOTION_DOT":0.00001416,"MEAN_MOTION_DDOT":0},{"OBJECT_NAME":"ONEWEB-0352","OBJECT_ID":"2021-083AG","EPOCH":"2026-07-13T20:08:58.301088","CLASSIFICATION_TYPE":"U","MEAN_MOTION":13.13469874,"ECCENTRICITY":0.000225,"INCLINATION":87.8976,"RA_OF_ASC_NODE":314.9287,"ARG_OF_PERICENTER":108.1233,"MEAN_ANOMALY":252.0141,"EPHEMERIS_TYPE":0,"NORAD_CAT_ID":49216,"ELEMENT_SET_NO":999,"REV_AT_EPOCH":23452,"BSTAR":-0.00017848,"MEAN_MOTION_DOT":-5.2e-7,"MEAN_MOTION_DDOT":0},{"OBJECT_NAME":"ONEWEB-0354","OBJECT_ID":"2021-083AH","EPOCH":"2026-07-14T04:17:34.705824","CLASSIFICATION_TYPE":"U","MEAN_MOTION":13.20771464,"ECCENTRICITY":0.0002276,"INCLINATION":87.9189,"RA_OF_ASC_NODE":269.0604,"ARG_OF_PERICENTER":85.5422,"MEAN_ANOMALY":274.5971,"EPHEMERIS_TYPE":0,"NORAD_CAT_ID":49217,"ELEMENT_SET_NO":999,"REV_AT_EPOCH":24037,"BSTAR":0.00027993,"MEAN_MOTION_DOT":0.00000127,"MEAN_MOTION_DDOT":0},{"OBJECT_NAME":"ONEWEB-0355","OBJECT_ID":"2021-083AJ","EPOCH":"2026-07-09T07:09:49.844448","CLASSIFICATION_TYPE":"U","MEAN_MOTION":13.13300713,"ECCENTRICITY":0.00020436,"INCLINATION":87.897,"RA_OF_ASC_NODE":315.832,"ARG_OF_PERICENTER":101.5704,"MEAN_ANOMALY":258.5654,"EPHEMERIS_TYPE":0,"NORAD_CAT_ID":49218,"ELEMENT_SET_NO":999,"REV_AT_EPOCH":23380,"BSTAR":0.00092726532,"MEAN_MOTION_DOT":0.00000351,"MEAN_MOTION_DDOT":0},{"OBJECT_NAME":"ONEWEB-0357","OBJECT_ID":"2021-083AK","EPOCH":"2026-07-14T04:12:42.977088","CLASSIFICATION_TYPE":"U","MEAN_MOTION":13.20769433,"ECCENTRICITY":0.0002213,"INCLINATION":87.9188,"RA_OF_ASC_NODE":269.0549,"ARG_OF_PERICENTER":104.9054,"MEAN_ANOMALY":255.2324,"EPHEMERIS_TYPE":0,"NORAD_CAT_ID":49219,"ELEMENT_SET_NO":999,"REV_AT_EPOCH":24037,"BSTAR":0.000076931,"MEAN_MOTION_DOT":4.4e-7,"MEAN_MOTION_DDOT":0},{"OBJECT_NAME":"ONEWEB-0332","OBJECT_ID":"2021-090A","EPOCH":"2026-07-13T18:48:35.555040","CLASSIFICATION_TYPE":"U","MEAN_MOTION":13.14502885,"ECCENTRICITY":0.0001967,"INCLINATION":87.8968,"RA_OF_ASC_NODE":284.4099,"ARG_OF_PERICENTER":105.078,"MEAN_ANOMALY":255.0567,"EPHEMERIS_TYPE":0,"NORAD_CAT_ID":49279,"ELEMENT_SET_NO":999,"REV_AT_EPOCH":23107,"BSTAR":0.00057372,"MEAN_MOTION_DOT":0.00000225,"MEAN_MOTION_DDOT":0},{"OBJECT_NAME":"ONEWEB-0347","OBJECT_ID":"2021-090B","EPOCH":"2026-07-14T03:58:10.565184","CLASSIFICATION_TYPE":"U","MEAN_MOTION":13.20769355,"ECCENTRICITY":0.000197,"INCLINATION":87.9183,"RA_OF_ASC_NODE":269.0652,"ARG_OF_PERICENTER":105.8106,"MEAN_ANOMALY":254.3244,"EPHEMERIS_TYPE":0,"NORAD_CAT_ID":49280,"ELEMENT_SET_NO":999,"REV_AT_EPOCH":23460,"BSTAR":0.00010035,"MEAN_MOTION_DOT":5.4e-7,"MEAN_MOTION_DDOT":0}]}
