ONEWEB-0340             
1 49206U 21083W   26194.84204876 -.00000057  00000+0 -17659-3 0  9990
2 49206  87.9199 330.1553 0001861  92.9027 267.2318 13.18687153233483
ONEWEB-0341             
1 49207U 21083X   26194.84878785 -.00000037  00000+0 -12667-3 0  9999
2 49207  87.9190 330.1555 0002340  91.4121 268.7279 13.18687866233505
ONEWEB-0342             
1 49208U 21083Y   26195.16877461  .00000858  00000+0  20770-2 0  9998
2 49208  87.9181 269.0620 0002200 102.3271 257.8108 13.20768535240348
ONEWEB-0343             
1 49209U 21083Z   26194.93309955  .00000025  00000+0  30160-4 0  9993
2 49209  87.9190 330.1374 0002213 107.0014 253.1361 13.18687855233564
ONEWEB-0344             
1 49210U 21083AA  26194.85817787  .00000302  00000+0  79219-3 0  9998
2 49210  87.8977 314.9303 0002257  93.0886 267.0501 13.13469241234393
ONEWEB-0345             
1 49211U 21083AB  26194.84972381  .00000069  00000+0  15468-3 0  9996
2 49211  87.8984 314.9172 0002240  93.8486 266.2899 13.13470840234402
ONEWEB-0346             
1 49212U 21083AC  26194.85384963  .00000012  00000+0 -31646-5 0  9998
2 49212  87.9185 330.1527 0001573  78.5318 281.5991 13.18687601233494
ONEWEB-0348             
1 49213U 21083AD  26195.15867644  .00000077  00000+0  15822-3 0  9991
2 49213  87.9186 269.0671 0002130  83.8170 276.3206 13.20772204240374
ONEWEB-0350             
1 49214U 21083AE  26194.79230035  .00000260  00000+0  67688-3 0  9990
2 49214  87.8987 314.9332 0001667 137.3669 222.7589 13.13471469234428
ONEWEB-0351             
1 49215U 21083AF  26195.15179910  .00001416  00000+0  34496-2 0  9990
2 49215  87.9209 269.0662 0003392 117.1793 242.9687 13.20763746240334
ONEWEB-0352             
1 49216U 21083AG  26194.83956367 -.00000052  00000+0 -17848-3 0  9994
2 49216  87.8976 314.9287 0002250 108.1233 252.0141 13.13469874234527
ONEWEB-0354             
1 49217U 21083AH  26195.17887391  .00000127  00000+0  27993-3 0  9996
2 49217  87.9189 269.0604 0002276  85.5422 274.5971 13.20771464240373
ONEWEB-0355             
1 49218U 21083AJ  26190.29849357  .00000351  00000+0  92727-3 0  9991
2 49218  87.8970 315.8320 0002043 101.5704 258.5654 13.13300713233807
ONEWEB-0357             
1 49219U 21083AK  26195.17549742  .00000044  00000+0  76931-4 0  9998
2 49219  87.9188 269.0549 0002213 104.9054 255.2324 13.20769433240371
ONEWEB-0332             
1 49279U 21090A   26194.78374485  .00000225  00000+0  57372-3 0  9996
2 49279  87.8968 284.4099 0001967 105.0780 255.0567 13.14502885231079
ONEWEB-0347             
1 49280U 21090B   26195.16540006  .00000054  00000+0  10035-3 0  9990
2 49280  87.9183 269.0652 0001970 105.8106 254.3244 13.20769355234609
